NORAD_CAT_ID,OBJECT_NAME,OBJECT_TYPE,EPOCH,MEAN_MOTION,ECCENTRICITY,INCLINATION,RA_OF_ASC_NODE,ARG_OF_PERICENTER,MEAN_ANOMALY,BSTAR,MEAN_MOTION_DOT,MEAN_MOTION_DDOT,TLE_LINE0,TLE_LINE1,TLE_LINE2,SEMIMAJOR_AXIS,PERIOD,APOGEE,PERIGEE,DECAYED
49452.0,STARLINK-3150,PAYLOAD,2023-09-01 17:26:15,15.08841361,0.0001312,53.219,29.0267,95.7376,264.3766,5.654e-05,6.12e-06,0.0,0 STARLINK-3150,1 49452U 21104AW  23244.72657376  .00000612  00000-0  56540-4 0  9993,2 49452  53.2190  29.0267 0001312  95.7376 264.3766 15.08841361 99892,6917.876,95.437,540.649,538.834,0.0
49452.0,STARLINK-3150,PAYLOAD,2023-09-02 09:20:07,15.08839478,0.0001434,53.2169,26.0514,90.1439,269.9717,3.6595e-05,2.95e-06,0.0,0 STARLINK-3150,1 49452U 21104AW  23245.38897673  .00000295  00000-0  36595-4 0  9997,2 49452  53.2169  26.0514 0001434  90.1439 269.9717 15.08839478 99998,6917.882,95.438,540.739,538.755,0.0
49452.0,STARLINK-3150,PAYLOAD,2023-09-02 18:52:25,15.08846952,0.0001247,53.2185,24.2677,88.7066,271.4069,9.3284e-05,1.197e-05,0.0,0 STARLINK-3150,1 49452U 21104AW  23245.78641005  .00001197  00000-0  93284-4 0  9997,2 49452  53.2185  24.2677 0001247  88.7066 271.4069 15.08846952101130,6917.859,95.437,540.587,538.861,0.0
49452.0,STARLINK-3150,PAYLOAD,2023-09-03 09:10:54,15.08841297,0.0001671,53.2188,21.5909,92.1858,267.9326,3.1425e-05,2.12e-06,0.0,0 STARLINK-3150,1 49452U 21104AW  23246.38257635  .00000212  00000-0  31425-4 0  9992,2 49452  53.2188  21.5909 0001671  92.1858 267.9326 15.08841297101223,6917.876,95.437,540.897,538.585,0.0
49452.0,STARLINK-3150,PAYLOAD,2023-09-03 17:07:49,15.08844882,0.0001409,53.2172,20.104,92.1681,267.9472,9.2114e-05,1.179e-05,0.0,0 STARLINK-3150,1 49452U 21104AW  23246.71377123  .00001179  00000-0  92114-4 0  9999,2 49452  53.2172  20.1040 0001409  92.1681 267.9472 15.08844882101270,6917.865,95.437,540.705,538.756,0.0
49452.0,STARLINK-3150,PAYLOAD,2023-09-04 15:23:14,15.08833885,0.000143,53.2173,15.9404,93.676,266.4395,2.9108e-05,1.75e-06,0.0,0 STARLINK-3150,1 49452U 21104AW  23247.64114119  .00000175  00000-0  29108-4 0  9994,2 49452  53.2173  15.9404 0001430  93.6760 266.4395 15.08833885101410,6917.899,95.438,540.753,538.775,0.0
49452.0,STARLINK-3150,PAYLOAD,2023-09-05 08:52:29,15.08836809,0.0001382,53.2189,12.6705,93.7702,266.3448,2.5758e-05,1.22e-06,0.0,0 STARLINK-3150,1 49452U 21104AW  23248.36978211  .00000122  00000-0  25758-4 0  9994,2 49452  53.2189  12.6705 0001382  93.7702 266.3448 15.08836809100447,6917.89,95.438,540.711,538.799,0.0
49452.0,STARLINK-3150,PAYLOAD,2023-09-06 00:46:19,15.08855878,0.0001223,53.2191,9.698,93.8468,266.2664,-0.00014941,-2.666e-05,0.0,0 STARLINK-3150,1 49452U 21104AW  23249.03217314 -.00002666  00000-0 -14941-3 0  9997,2 49452  53.2191   9.6980 0001223  93.8468 266.2664 15.08855878101622,6917.832,95.437,540.543,538.851,0.0
49452.0,STARLINK-3150,PAYLOAD,2023-09-06 08:43:16,15.08838309,0.000131,53.2197,8.212,94.5813,265.5329,0.00010371,1.363e-05,0.0,0 STARLINK-3150,1 49452U 21104AW  23249.36338086  .00001363  00000-0  10371-3 0  9997,2 49452  53.2197   8.2120 0001310  94.5813 265.5329 15.08838309101673,6917.886,95.438,540.657,538.844,0.0
49452.0,STARLINK-3150,PAYLOAD,2023-09-07 16:30:58,15.0884168,0.0001271,53.2187,2.2638,89.6484,270.4654,5.7762e-05,6.32e-06,0.0,0 STARLINK-3150,1 49452U 21104AW  23250.68818152  .00000632  00000-0  57762-4 0  9995,2 49452  53.2187   2.2638 0001271  89.6484 270.4654 15.08841680100799,6917.875,95.437,540.62,538.861,0.0
49452.0,STARLINK-3150,PAYLOAD,2023-09-08 13:11:00,15.08834955,0.0001363,53.2189,358.401,85.2053,274.9095,1.5007e-05,-4.9e-07,0.0,0 STARLINK-3150,1 49452U 21104AW  23251.54930900 -.00000049  00000-0  15007-4 0  9996,2 49452  53.2189 358.4010 0001363  85.2053 274.9095 15.08834955100927,6917.896,95.438,540.704,538.818,0.0
49452.0,STARLINK-3150,PAYLOAD,2023-09-08 16:21:45,15.0884295,0.0001187,53.2189,357.8022,79.1363,280.9762,7.274e-05,8.7e-06,0.0,0 STARLINK-3150,1 49452U 21104AW  23251.68178185  .00000870  00000-0  72740-4 0  9998,2 49452  53.2189 357.8022 0001187  79.1363 280.9762 15.08842950100947,6917.871,95.437,540.558,538.915,0.0
49452.0,STARLINK-3150,PAYLOAD,2023-09-09 06:40:15,15.08832353,0.0001384,53.2194,355.1273,88.0954,272.0197,2.2819e-05,7.5e-07,0.0,0 STARLINK-3150,1 49452U 21104AW  23252.27795157  .00000075  00000-0  22819-4 0  9997,2 49452  53.2194 355.1273 0001384  88.0954 272.0197 15.08832353102117,6917.904,95.438,540.726,538.811,0.0
49452.0,STARLINK-3150,PAYLOAD,2023-09-09 13:01:47,15.08836865,0.0001547,53.2181,353.9386,85.3642,274.7527,6.1612e-05,6.93e-06,0.0,0 STARLINK-3150,1 49452U 21104AW  23252.54290915  .00000693  00000-0  61612-4 0  9999,2 49452  53.2181 353.9386 0001547  85.3642 274.7527 15.08836865101071,6917.89,95.438,540.825,538.685,0.0
49452.0,STARLINK-3150,PAYLOAD,2023-09-09 16:12:33,15.08843631,0.0001413,53.2189,353.3427,83.518,276.5973,0.00011374,1.523e-05,0.0,0 STARLINK-3150,1 49452U 21104AW  23252.67538343  .00001523  00000-0  11374-3 0  9995,2 49452  53.2189 353.3427 0001413  83.5180 276.5973 15.08843631102174,6917.869,95.437,540.712,538.757,0.0
49452.0,STARLINK-3150,PAYLOAD,2023-09-10 12:52:33,15.08862377,0.0001486,53.2182,349.4767,117.8335,242.2808,-6.3665e-05,-1.302e-05,0.0,0 STARLINK-3150,1 49452U 21104AW  23253.53649591 -.00001302  00000-0 -63665-4 0  9997,2 49452  53.2182 349.4767 0001486 117.8335 242.2808 15.08862377101223,6917.812,95.436,540.705,538.649,0.0
49452.0,STARLINK-3150,PAYLOAD,2023-09-10 16:03:19,15.08854791,0.0001292,53.2185,348.881,89.4549,270.6591,0.00015907,2.246e-05,0.0,0 STARLINK-3150,1 49452U 21104AW  23253.66897517  .00002246  00000-0  15907-3 0  9995,2 49452  53.2185 348.8810 0001292  89.4549 270.6591 15.08854791102321,6917.835,95.437,540.594,538.806,0.0
49452.0,STARLINK-3150,PAYLOAD,2023-09-11 09:32:35,15.08841457,0.0001139,53.2182,345.6108,84.115,275.9972,2.6872e-05,1.4e-06,0.0,0 STARLINK-3150,1 49452U 21104AW  23254.39762786  .00000140  00000-0  26872-4 0  9990,2 49452  53.2182 345.6108 0001139  84.1150 275.9972 15.08841457102431,6917.876,95.437,540.529,538.953,0.0
49452.0,STARLINK-3150,PAYLOAD,2023-09-11 12:43:20,15.08847036,0.0001366,53.2184,345.0156,96.3855,263.7293,7.541e-05,9.13e-06,0.0,0 STARLINK-3150,1 49452U 21104AW  23254.53010307  .00000913  00000-0  75410-4 0  9991,2 49452  53.2184 345.0156 0001366  96.3855 263.7293 15.08847036101371,6917.859,95.437,540.669,538.779,0.0
49452.0,STARLINK-3150,PAYLOAD,2023-09-11 15:54:07,15.08847476,0.000129,53.2175,344.4216,95.7708,264.3432,0.0001292,1.769e-05,0.0,0 STARLINK-3150,1 49452U 21104AW  23254.66258231  .00001769  00000-0  12920-3 0  9991,2 49452  53.2175 344.4216 0001290  95.7708 264.3432 15.08847476102479,6917.858,95.437,540.615,538.83,0.0
49452.0,STARLINK-3150,PAYLOAD,2023-09-12 12:34:07,15.08852106,0.0001437,53.2181,340.5548,98.995,261.1205,7.5392e-05,9.12e-06,0.0,0 STARLINK-3150,1 49452U 21104AW  23255.52369642  .00000912  00000-0  75392-4 0  9998,2 49452  53.2181 340.5548 0001437  98.9950 261.1205 15.08852106101522,6917.843,95.437,540.702,538.714,0.0
49452.0,STARLINK-3150,PAYLOAD,2023-09-12 15:44:53,15.08853927,0.0001511,53.2185,339.9589,98.0988,262.0176,0.0001294,1.773e-05,0.0,0 STARLINK-3150,1 49452U 21104AW  23255.65617516  .00001773  00000-0  12940-3 0  9993,2 49452  53.2185 339.9589 0001511  98.0988 262.0176 15.08853927101549,6917.838,95.437,540.748,538.658,0.0
49452.0,STARLINK-3150,PAYLOAD,2023-09-13 09:14:08,15.0885201,0.0001473,53.2169,336.6902,103.7164,256.3992,0.00018285,2.624e-05,0.0,0 STARLINK-3150,1 49452U 21104AW  23256.38481546  .00002624  00000-0  18285-3 0  9990,2 49452  53.2169 336.6902 0001473 103.7164 256.3992 15.08852010102737,6917.844,95.437,540.728,538.69,0.0
49452.0,STARLINK-3150,PAYLOAD,2023-09-13 12:24:54,15.08856142,0.0001525,53.2178,336.0946,103.0219,257.0944,0.00025502,3.775e-05,0.0,0 STARLINK-3150,1 49452U 21104AW  23256.51729297  .00003775  00000-0  25502-3 0  9991,2 49452  53.2178 336.0946 0001525 103.0219 257.0944 15.08856142101678,6917.831,95.437,540.751,538.641,0.0
49452.0,STARLINK-3150,PAYLOAD,2023-09-13 21:57:13,15.08839562,0.0002745,53.2182,334.3099,75.1624,284.9672,3.8002e-06,-2.28e-06,0.0,0 STARLINK-3150,1 49452U 21104AW  23256.91474352 -.00000228  00000-0  38002-5 0  9996,2 49452  53.2182 334.3099 0002745  75.1624 284.9672 15.08839562101738,6917.882,95.438,541.646,537.848,0.0
49452.0,STARLINK-3150,PAYLOAD,2023-09-14 10:40:19,15.08811565,0.0001461,53.2175,331.9329,82.3724,277.7434,-0.00050399,-8.294e-05,0.0,0 STARLINK-3150,1 49452U 21104AW  23257.44467464 -.00008294  00000-0 -50399-3 0  9994,2 49452  53.2175 331.9329 0001461  82.3724 277.7434 15.08811565102891,6917.967,95.439,540.843,538.822,0.0
49452.0,STARLINK-3150,PAYLOAD,2023-09-14 13:51:06,15.0881378,0.0001484,53.2178,331.3387,83.1357,276.9803,-0.00039073,-6.497e-05,0.0,0 STARLINK-3150,1 49452U 21104AW  23257.57715627 -.00006497  00000-0 -39073-3 0  9994,2 49452  53.2178 331.3387 0001484  83.1357 276.9803 15.08813780101833,6917.961,95.439,540.852,538.799,0.0
49452.0,STARLINK-3150,PAYLOAD,2023-09-14 21:48:02,15.0881957,0.0001506,53.2177,329.8528,77.6466,282.4695,-0.00013898,-2.498e-05,0.0,0 STARLINK-3150,1 49452U 21104AW  23257.90835977 -.00002498  00000-0 -13898-3 0  9996,2 49452  53.2177 329.8528 0001506  77.6466 282.4695 15.08819570102964,6917.943,95.439,540.85,538.766,0.0
49452.0,STARLINK-3150,PAYLOAD,2023-09-15 10:31:08,15.08834473,0.0001519,53.217,327.4724,71.9301,288.1857,0.00093861,0.00014679,0.0,0 STARLINK-3150,1 49452U 21104AW  23258.43828716  .00014679  00000-0  93861-3 0  9998,2 49452  53.2170 327.4724 0001519  71.9301 288.1857 15.08834473103040,6917.897,95.438,540.813,538.711,0.0
49452.0,STARLINK-3150,PAYLOAD,2023-09-15 12:06:31,15.08838223,0.0001522,53.2169,327.1754,68.2685,291.8469,0.0011223,0.00017618,0.0,0 STARLINK-3150,1 49452U 21104AW  23258.50452806  .00017618  00000-0  11223-2 0  9996,2 49452  53.2169 327.1754 0001522  68.2685 291.8469 15.08838223101973,6917.886,95.438,540.804,538.698,0.0
